ION SCV-004             
1 50993U 22002K   26068.68892644  .00006538  00000+0  23198-3 0  9998
2 50993  97.2961 128.2294 0007216   1.6783 358.4480 15.29369331230088
STARLINK-32617          
1 62076U 24217V   26068.62945605  .00028729  00000+0  97861-3 0  9997
2 62076  53.1607 181.2847 0001102  83.9922 276.1205 15.30191631 73590
